STARLINK-2236           
1 48582U 21041AF  26068.49210380  .00000949  00000+0  82603-4 0  9998
2 48582  53.0546  97.6704 0001256 103.2963 256.8166 15.06399512265663
STARLING 4              
1 57386U 23100A   26066.02836485 -.00000009  00000+0  55676-5 0  9994
2 57386  99.5115  59.9711 0007803  83.0949 277.1159 15.06148396144525
